GLOBALSTAR M063 [+]     
1 26081U 00008A   24011.28096939 -.00000029  00000+0  77913-3 0  9990
2 26081  51.9967  48.6924 0004321  38.2382  42.5513 11.86149604 95526
GLOBALSTAR M062 [-]     
1 26082U 00008B   24011.54618183 -.00000069  00000+0  20633-3 0  9992
2 26082  51.9818 192.6593 0008242  79.3528 319.3093 12.43425386431607
GLOBALSTAR M060 [-]     
1 26083U 00008C   24011.50193505  .00000112  00000+0  20236-2 0  9991
2 26083  52.0026  78.8525 0004109 142.9418 320.6520 12.17622210 88697
GLOBALSTAR M065 [+]     
1 31571U 07020A   24011.43266163 -.00000087  00000+0  91793-4 0  9993
2 31571  51.9911  17.2955 0009830 228.1377 279.1296 12.61961699767404
GLOBALSTAR M069 [+]     
1 31573U 07020C   24011.30640432 -.00000077  00000+0  14877-3 0  9992
2 31573  51.9976 333.7131 0000839  17.3528 130.3765 12.62263821768510
GLOBALSTAR M072 [+]     
1 31574U 07020D   24011.45133553 -.00000143  00000+0 -22033-3 0  9998
2 31574  52.0096  69.0667 0000726 170.3904 295.0141 12.62268943766809
GLOBALSTAR M071 [P]     
1 31576U 07020F   24011.41890552 -.00000080  00000+0  13234-3 0  9997
2 31576  52.0092 338.4128 0001138  33.0843 145.6507 12.62264444429711
